{
  "type": "FeatureCollection",
  "features": [
    {
      "type": "Feature",
      "properties": {
        "norad_id": 66843,
        "name": "STARLINK-35997",
        "group": "last-30-days",
        "lat": 31.244607002067863,
        "lon": -145.35334195456286,
        "alt_km": 316.4583619290943,
        "timestamp": "2025-12-11T15:53:38.295138+00:00",
        "meta_object_name": "STARLINK-35997",
        "meta_object_id": "2025-280Y",
        "meta_epoch": "2025-12-10T18:00:02.000160",
        "meta_mean_motion": 15.87863546,
        "meta_eccentricity": 0.000373,
        "meta_inclination": 69.9924,
        "meta_ra_of_asc_node": 204.501,
        "meta_arg_of_pericenter": 268.9655,
        "meta_mean_anomaly": 317.1531,
        "meta_ephemeris_type": 0,
        "meta_classification_type": "U",
        "meta_norad_cat_id": 66843,
        "meta_element_set_no": 999,
        "meta_rev_at_epoch": 258,
        "meta_bstar": -0.0071908,
        "meta_mean_motion_dot": -0.0169407,
        "meta_mean_motion_ddot": 0,
        "tle_line1": "1 66843U 25280Y   25344.75002315 -.01694070  00000+0 -71908-2 0  9990",
        "tle_line2": "2 66843  69.9924 204.5010 0003730 268.9655 317.1531 15.87863546  2583"
      },
      "geometry": {
        "type": "Point",
        "coordinates": [
          -145.35334195456286,
          31.244607002067863
        ]
      }
    },
    {
      "type": "Feature",
      "properties": {
        "norad_id": 66844,
        "name": "STARLINK-36073",
        "group": "last-30-days",
        "lat": 29.654641380429776,
        "lon": -146.14952094046876,
        "alt_km": 316.7499697158919,
        "timestamp": "2025-12-11T15:53:38.295152+00:00",
        "meta_object_name": "STARLINK-36073",
        "meta_object_id": "2025-280Z",
        "meta_epoch": "2025-12-10T18:00:02.000160",
        "meta_mean_motion": 15.87818843,
        "meta_eccentricity": 0.0003729,
        "meta_inclination": 69.9926,
        "meta_ra_of_asc_node": 204.503,
        "meta_arg_of_pericenter": 269.5704,
        "meta_mean_anomaly": 314.9537,
        "meta_ephemeris_type": 0,
        "meta_classification_type": "U",
        "meta_norad_cat_id": 66844,
        "meta_element_set_no": 999,
        "meta_rev_at_epoch": 258,
        "meta_bstar": -0.0071928,
        "meta_mean_motion_dot": -0.01691191,
        "meta_mean_motion_ddot": 0,
        "tle_line1": "1 66844U 25280Z   25344.75002315 -.01691191  00000+0 -71928-2 0  9994",
        "tle_line2": "2 66844  69.9926 204.5030 0003729 269.5704 314.9537 15.87818843  2589"
      },
      "geometry": {
        "type": "Point",
        "coordinates": [
          -146.14952094046876,
          29.654641380429776
        ]
      }
    },
    {
      "type": "Feature",
      "properties": {
        "norad_id": 66845,
        "name": "STARLINK-36068",
        "group": "last-30-days",
        "lat": 36.28124032029315,
        "lon": -142.6170037486283,
        "alt_km": 315.5545133429423,
        "timestamp": "2025-12-11T15:53:38.295164+00:00",
        "meta_object_name": "STARLINK-36068",
        "meta_object_id": "2025-280AA",
        "meta_epoch": "2025-12-10T18:00:02.000160",
        "meta_mean_motion": 15.87995314,
        "meta_eccentricity": 0.00038,
        "meta_inclination": 69.9924,
        "meta_ra_of_asc_node": 204.4949,
        "meta_arg_of_pericenter": 268.3551,
        "meta_mean_anomaly": 322.8945,
        "meta_ephemeris_type": 0,
        "meta_classification_type": "U",
        "meta_norad_cat_id": 66845,
        "meta_element_set_no": 999,
        "meta_rev_at_epoch": 258,
        "meta_bstar": -0.0072002,
        "meta_mean_motion_dot": -0.01705839,
        "meta_mean_motion_ddot": 0,
        "tle_line1": "1 66845U 25280AA  25344.75002315 -.01705839  00000+0 -72002-2 0  9994",
        "tle_line2": "2 66845  69.9924 204.4949 0003800 268.3551 322.8945 15.87995314  2583"
      },
      "geometry": {
        "type": "Point",
        "coordinates": [
          -142.6170037486283,
          36.28124032029315
        ]
      }
    },
    {
      "type": "Feature",
      "properties": {
        "norad_id": 66846,
        "name": "STARLINK-36055",
        "group": "last-30-days",
        "lat": 33.16856955484393,
        "lon": -144.34969706283155,
        "alt_km": 316.1343580726516,
        "timestamp": "2025-12-11T15:53:38.295175+00:00",
        "meta_object_name": "STARLINK-36055",
        "meta_object_id": "2025-280AB",
        "meta_epoch": "2025-12-10T18:00:02.000160",
        "meta_mean_motion": 15.87905661,
        "meta_eccentricity": 0.0003748,
        "meta_inclination": 69.9925,
        "meta_ra_of_asc_node": 204.4985,
        "meta_arg_of_pericenter": 269.101,
        "meta_mean_anomaly": 319.0072,
        "meta_ephemeris_type": 0,
        "meta_classification_type": "U",
        "meta_norad_cat_id": 66846,
        "meta_element_set_no": 999,
        "meta_rev_at_epoch": 258,
        "meta_bstar": -0.0072117,
        "meta_mean_motion_dot": -0.01701487,
        "meta_mean_motion_ddot": 0,
        "tle_line1": "1 66846U 25280AB  25344.75002315 -.01701487  00000+0 -72117-2 0  9997",
        "tle_line2": "2 66846  69.9925 204.4985 0003748 269.1010 319.0072 15.87905661  2580"
      },
      "geometry": {
        "type": "Point",
        "coordinates": [
          -144.34969706283155,
          33.16856955484393
        ]
      }
    },
    {
      "type": "Feature",
      "properties": {
        "norad_id": 66847,
        "name": "STARLINK-36061",
        "group": "last-30-days",
        "lat": 34.68781476130634,
        "lon": -143.5216575652102,
        "alt_km": 315.8103506173302,
        "timestamp": "2025-12-11T15:53:38.295185+00:00",
        "meta_object_name": "STARLINK-36061",
        "meta_object_id": "2025-280AC",
        "meta_epoch": "2025-12-10T18:00:02.000160",
        "meta_mean_motion": 15.87951104,
        "meta_eccentricity": 0.0003761,
        "meta_inclination": 69.9924,
        "meta_ra_of_asc_node": 204.4971,
        "meta_arg_of_pericenter": 269.5352,
        "meta_mean_anomaly": 320.0966,
        "meta_ephemeris_type": 0,
        "meta_classification_type": "U",
        "meta_norad_cat_id": 66847,
        "meta_element_set_no": 999,
        "meta_rev_at_epoch": 253,
        "meta_bstar": -0.0072049,
        "meta_mean_motion_dot": -0.01703472,
        "meta_mean_motion_ddot": 0,
        "tle_line1": "1 66847U 25280AC  25344.75002315 -.01703472  00000+0 -72049-2 0  9998",
        "tle_line2": "2 66847  69.9924 204.4971 0003761 269.5352 320.0966 15.87951104  2535"
      },
      "geometry": {
        "type": "Point",
        "coordinates": [
          -143.5216575652102,
          34.68781476130634
        ]
      }
    },
    {
      "type": "Feature",
      "properties": {
        "norad_id": 66848,
        "name": "STARLINK-36091",
        "group": "last-30-days",
        "lat": 42.86431935961629,
        "lon": -146.059865439426,
        "alt_km": 287.4576181321263,
        "timestamp": "2025-12-11T15:53:38.295195+00:00",
        "meta_object_name": "STARLINK-36091",
        "meta_object_id": "2025-281A",
        "meta_epoch": "2025-12-10T16:00:01.999584",
        "meta_mean_motion": 15.95185766,
        "meta_eccentricity": 0.00016928,
        "meta_inclination": 43.0014,
        "meta_ra_of_asc_node": 135.3114,
        "meta_arg_of_pericenter": 280.935,
        "meta_mean_anomaly": 204.3448,
        "meta_ephemeris_type": 0,
        "meta_classification_type": "U",
        "meta_norad_cat_id": 66848,
        "meta_element_set_no": 999,
        "meta_rev_at_epoch": 246,
        "meta_bstar": -0.0023663686,
        "meta_mean_motion_dot": -0.00965288,
        "meta_mean_motion_ddot": 0.0002924381,
        "tle_line1": "1 66848U 25281A   25344.66668981 -.00965288  29244-3 -23664-2 0  9995",
        "tle_line2": "2 66848  43.0014 135.3114 0001692 280.9350 204.3448 15.95185766  2469"
      },
      "geometry": {
        "type": "Point",
        "coordinates": [
          -146.059865439426,
          42.86431935961629
        ]
      }
    },
    {
      "type": "Feature",
      "properties": {
        "norad_id": 66849,
        "name": "STARLINK-36102",
        "group": "last-30-days",
        "lat": 42.95713532979474,
        "lon": -143.21575576057643,
        "alt_km": 287.2618458423858,
        "timestamp": "2025-12-11T15:53:38.295205+00:00",
        "meta_object_name": "STARLINK-36102",
        "meta_object_id": "2025-281B",
        "meta_epoch": "2025-12-10T16:00:01.999584",
        "meta_mean_motion": 15.95247309,
        "meta_eccentricity": 0.0001605,
        "meta_inclination": 43.0015,
        "meta_ra_of_asc_node": 135.306,
        "meta_arg_of_pericenter": 279.0783,
        "meta_mean_anomaly": 208.0732,
        "meta_ephemeris_type": 0,
        "meta_classification_type": "U",
        "meta_norad_cat_id": 66849,
        "meta_element_set_no": 999,
        "meta_rev_at_epoch": 246,
        "meta_bstar": -0.002361761,
        "meta_mean_motion_dot": -0.00966596,
        "meta_mean_motion_ddot": 0.00029334398,
        "tle_line1": "1 66849U 25281B   25344.66668981 -.00966596  29334-3 -23618-2 0  9998",
        "tle_line2": "2 66849  43.0015 135.3060 0001605 279.0783 208.0732 15.95247309  2463"
      },
      "geometry": {
        "type": "Point",
        "coordinates": [
          -143.21575576057643,
          42.95713532979474
        ]
      }
    }
  ]
}